H1 CPF 01  gfz 2021 09 08 12  7511 tandemx   
H2 1003001  6202 36605    2021 09 08 12 59 42 2021 09 13 00 00 42   120 1 1  0 0 0
H9
10 0 59468  19422.000000  0   -4382804.970    -25576.685   5304128.455
10 0 59468  19542.000000  0   -3655790.252    196003.635   5824577.342
10 0 59468  19662.000000  0   -2861200.828    400846.328   6242583.670
10 0 59468  19782.000000  0   -2013264.747    584318.618   6550834.519
10 0 59468  19902.000000  0   -1127204.209    742419.832   6743944.410
10 0 59468  20022.000000  0    -218959.102    871865.173   6818543.046
10 0 59468  20142.000000  0     695099.743    970151.648   6773329.681
10 0 59468  20262.000000  0    1598464.496   1035605.885   6609094.349
10 0 59468  20382.000000  0    2474787.479   1067413.002   6328704.995
10 0 59468  20502.000000  0    3308176.684   1065625.562   5937061.137
10 0 59468  20622.000000  0    4083486.495   1031152.811   5441013.261
10 0 59468  20742.000000  0    4786595.882    965730.483   4849248.260
10 0 59468  20862.000000  0    5404672.038    871871.268   4172144.975
10 0 59468  20982.000000  0    5926414.880    752797.481   3421596.406
10 0 59468  21102.000000  0    6342273.664    612357.162   2610801.167
10 0 59468  21222.000000  0    6644630.345    454924.343   1754030.398
10 0 59468  21342.000000  0    6827949.243    285286.959    866373.012
10 0 59468  21462.000000  0    6888884.057    108524.732    -36537.140
10 0 59468  21582.000000  0    6826342.441    -70120.235   -938805.238
10 0 59468  21702.000000  0    6641503.863   -245376.512  -1824564.617
10 0 59468  21822.000000  0    6337791.613   -412076.414  -2678263.868
10 0 59468  21942.000000  0    5920800.278   -565286.246  -3484945.242
10 0 59468  22062.000000  0    5398181.254   -700429.931  -4230509.482
10 0 59468  22182.000000  0    4779489.085   -813402.584  -4901961.048
10 0 59468  22302.000000  0    4075994.748   -900671.514  -5487629.031
10 0 59468  22422.000000  0    3300470.510   -959363.855  -5977362.172
10 0 59468  22542.000000  0    2466950.223   -987338.634  -6362694.559
10 0 59468  22662.000000  0    1590471.508   -983240.455  -6636980.286
10 0 59468  22782.000000  0     686804.958   -946536.035  -6795496.991
10 0 59468  22902.000000  0    -227826.161   -877532.823  -6835518.946
10 0 59468  23022.000000  0   -1137031.124   -777378.447  -6756358.090
10 0 59468  23142.000000  0   -2024538.449   -648042.092  -6559375.069
10 0 59468  23262.000000  0   -2874480.790   -492277.152  -6247957.411
10 0 59468  23382.000000  0   -3671671.706   -313566.599  -5827467.109
10 0 59468  23502.000000  0   -4401874.727   -116051.115  -5305159.487
10 0 59468  23622.000000  0   -5052059.343     95558.868  -4690068.628
10 0 59468  23742.000000  0   -5610638.400    316085.247  -3992863.371
10 0 59468  23862.000000  0   -6067684.703    539998.250  -3225672.930
10 0 59468  23982.000000  0   -6415119.526    761543.085  -2401883.242
10 0 59468  24102.000000  0   -6646868.265    974875.111  -1535907.022
10 0 59468  24222.000000  0   -6758980.189   1174199.789   -642932.037
10 0 59468  24342.000000  0   -6749707.034   1353914.154    261351.149
10 0 59468  24462.000000  0   -6619535.374   1508745.783   1161031.570
10 0 59468  24582.000000  0   -6371176.441   1633886.836   2040265.476
10 0 59468  24702.000000  0   -6009510.908   1725118.951   2883564.736
10 0 59468  24822.000000  0   -5541489.273   1778925.194   3676078.558
10 0 59468  24942.000000  0   -4975990.406   1792586.224   4403861.191
10 0 59468  25062.000000  0   -4323643.726   1764258.836   5054119.730
10 0 59468  25182.000000  0   -3596620.362   1693035.197   5615438.299
10 0 59468  25302.000000  0   -2808398.299   1578981.582   6077976.295
10 0 59468  25422.000000  0   -1973504.603   1423156.197   6433637.593
10 0 59468  25542.000000  0   -1107240.905   1227604.612   6676205.876
10 0 59468  25662.000000  0    -225399.907    995333.952   6801445.979
10 0 59468  25782.000000  0     656022.384    730266.522   6807172.587
10 0 59468  25902.000000  0    1521115.737    437173.313   6693285.842
10 0 59468  26022.000000  0    2354341.578    121588.726   6461773.079
10 0 59468  26142.000000  0    3140811.602   -210292.868   6116677.522
10 0 59468  26262.000000  0    3866555.878   -551737.169   5664032.407
10 0 59468  26382.000000  0    4518774.499   -895604.351   5111760.799
10 0 59468  26502.000000  0    5086068.986  -1234496.079   4469543.236
10 0 59468  26622.000000  0    5558649.514  -1560911.512   3748652.971
10 0 59468  26742.000000  0    5928513.127  -1867410.013   2961760.965
10 0 59468  26862.000000  0    6189588.605  -2146776.754   2122713.085
10 0 59468  26982.000000  0    6337843.579  -2392186.917   1246283.718
10 0 59468  27102.000000  0    6371352.191  -2597364.453    347910.103
10 0 59468  27222.000000  0    6290319.908  -2756731.657   -556587.787
10 0 59468  27342.000000  0    6097065.624  -2865545.009  -1451295.054
10 0 59468  27462.000000  0    5795959.472  -2920014.240  -2320491.129
10 0 59468  27582.000000  0    5393320.280  -2917400.997  -3148932.344
10 0 59468  27702.000000  0    4897275.996  -2856095.222  -3922123.039
10 0 59468  27822.000000  0    4317591.072  -2735668.615  -4626569.496
10 0 59468  27942.000000  0    3665464.420  -2556903.305  -5250012.884
10 0 59468  28062.000000  0    2953303.603  -2321795.028  -5781634.778
10 0 59468  28182.000000  0    2194483.912  -2033532.592  -6212234.008
10 0 59468  28302.000000  0    1403095.377  -1696454.273  -6534376.406
10 0 59468  28422.000000  0     593680.221  -1315980.311  -6742512.590
10 0 59468  28542.000000  0    -219031.353   -898525.253  -6833062.975
10 0 59468  28662.000000  0   -1020383.685   -451391.018  -6804471.955
10 0 59468  28782.000000  0   -1796053.596     17357.902  -6657231.751
10 0 59468  28902.000000  0   -2532300.576    499036.426  -6393873.961
10 0 59468  29022.000000  0   -3216204.385    984495.018  -6018930.538
10 0 59468  29142.000000  0   -3835888.673   1464288.728  -5538865.047
10 0 59468  29262.000000  0   -4380728.797   1928856.429  -4961972.787
10 0 59468  29382.000000  0   -4841538.790   2368709.035  -4298249.196
10 0 59468  29502.000000  0   -5210733.159   2774621.826  -3559226.446
10 0 59468  29622.000000  0   -5482460.398   3137826.254  -2757782.149
10 0 59468  29742.000000  0   -5652706.333   3450198.986  -1907921.167
10 0 59468  29862.000000  0   -5719362.495   3704443.143  -1024532.577
10 0 59468  29982.000000  0   -5682257.088   3894255.951   -123126.305
10 0 59468  30102.000000  0   -5543147.915   4014479.510    780444.727
10 0 59468  30222.000000  0   -5305675.395   4061229.367   1670272.879
10 0 59468  30342.000000  0   -4975275.966   4031996.936   2530685.009
10 0 59468  30462.000000  0   -4559060.369   3925724.563   3346526.293
10 0 59468  30582.000000  0   -4065659.299   3742851.054   4103434.755
10 0 59468  30702.000000  0   -3505039.979   3485325.059   4788098.295
10 0 59468  30822.000000  0   -2888299.510   3156588.586   5388490.363
10 0 59468  30942.000000  0   -2227438.783   2761529.822   5894079.855
10 0 59468  31062.000000  0   -1535123.645   2306407.168   6296012.100
10 0 59468  31182.000000  0    -824437.344   1798745.812   6587257.742
10 0 59468  31302.000000  0    -108632.280   1247210.275   6762727.984
10 0 59468  31422.000000  0     599116.784    661454.680   6819358.825
10 0 59468  31542.000000  0    1285954.680     51953.497   6756160.722
10 0 59468  31662.000000  0    1939578.150   -570184.933   6574235.148
10 0 59468  31782.000000  0    2548455.686  -1193420.452   6276757.240
10 0 59468  31902.000000  0    3102031.807  -1805994.213   5868924.603
10 0 59468  32022.000000  0    3590913.195  -2396150.971   5357872.091
10 0 59468  32142.000000  0    4007032.031  -2952365.508   4752552.528
10 0 59468  32262.000000  0    4343784.153  -3463570.167   4063585.656
10 0 59468  32382.000000  0    4596139.298  -3919378.910   3303075.726
10 0 59468  32502.000000  0    4760721.224  -4310302.591   2484400.226
10 0 59468  32622.000000  0    4835854.879  -4627949.714   1621972.072
10 0 59468  32742.000000  0    4821578.345  -4865207.838    730981.101
10 0 59468  32862.000000  0    4719619.911  -5016401.930   -172880.289
10 0 59468  32982.000000  0    4533340.789  -5077424.333  -1073701.575
10 0 59468  33102.000000  0    4267645.487  -5045833.402  -1955643.479
10 0 59468  33222.000000  0    3928860.337  -4920917.972  -2803224.297
10 0 59468  33342.000000  0    3524585.090  -4703726.470  -3601597.294
10 0 59468  33462.000000  0    3063521.271  -4397060.728  -4336812.757
10 0 59468  33582.000000  0    2555282.461  -4005435.144  -4996060.923
10 0 59468  33702.000000  0    2010190.317  -3535001.612  -5567889.251
10 0 59468  33822.000000  0    1439063.684  -2993445.415  -6042391.129
10 0 59468  33942.000000  0     853004.211  -2389854.766  -6411367.297
10 0 59468  34062.000000  0     263181.549  -1734564.315  -6668457.289
10 0 59468  34182.000000  0    -319376.512  -1038976.143  -6809238.198
10 0 59468  34302.000000  0    -883984.943   -315362.640  -6831291.724
10 0 59468  34422.000000  0   -1420492.347    423345.648  -6734240.620
10 0 59468  34542.000000  0   -1919459.332   1163784.973  -6519753.850
10 0 59468  34662.000000  0   -2372320.520   1892394.072  -6191520.964
10 0 59468  34782.000000  0   -2771529.425   2595656.334  -5755196.026
10 0 59468  34902.000000  0   -3110684.583   3260347.197  -5218310.966
10 0 59468  35022.000000  0   -3384634.827   3873782.330  -4590157.611
10 0 59468  35142.000000  0   -3589561.797   4424062.243  -3881637.502
10 0 59468  35262.000000  0   -3723035.755   4900307.222  -3105080.952
10 0 59468  35382.000000  0   -3784044.156   5292877.598  -2274039.873
10 0 59468  35502.000000  0   -3772994.007   5593576.123  -1403055.977
10 0 59468  35622.000000  0   -3691685.389   5795827.315   -507406.153
10 0 59468  35742.000000  0   -3543255.528   5894825.698    397170.174
10 0 59468  35862.000000  0   -3332097.051   5887650.579   1294754.122
99
